"ID","Station","Altitude","Longitude","Latitude","City","Address","StartDate","cityID"
"466850","五分山雷達站",756,121.7812,25.0712,"新北市","瑞芳區靜安路四段1巷1號","1988/7/1",12
"466880","板橋",9.7,121.442,24.9976,"新北市","板橋區大觀路二段265巷62號","1972/3/1",12
"466900","淡水",19,121.4489,25.1649,"新北市","淡水區中正東路42巷6號","1942/1/1",12
"466910","鞍部",825.8,121.5297,25.1826,"臺北市","北投區陽明山竹子湖路111號","1937/1/1",19
"466920","臺北",6.3,121.5149,25.0377,"臺北市","中正區公園路64號","1896/01/01",19
"466930","竹子湖",607.1,121.5445,25.1621,"臺北市","北投區陽明山竹子湖路2號","1937/1/1",19
"466940","基隆",26.7,121.7405,25.1333,"基隆市","仁愛區港西街6號6樓(海港大樓6樓)","1946/1/1",9
"466950","彭佳嶼",101.7,122.0797,25.628,"基隆市","中正區彭佳嶼","1910/1/1",9
"466990","花蓮",16,121.6133,23.9751,"花蓮縣","花蓮市花崗街24號","1910/1/1",2
"467050","新屋",20.6,121.0475,25.0067,"桃園市","新屋區東興路二段946號","2013/7/1",7
"467060","蘇澳",24.9,121.8574,24.5967,"宜蘭縣","蘇澳鎮港區路1號6樓(蘇澳港行政大樓6樓)","1981/7/1",1
"467080","宜蘭",7.2,121.7565,24.764,"宜蘭縣","宜蘭市力行路150號","1935/1/1",1
"467110","金門",47.9,118.2893,24.4073,"金門縣","金城鎮金水里西海路一段250號","2004/1/1",3
"467300","東吉島",43,119.6675,23.257,"澎湖縣","望安鄉東吉村156號","1962/1/1",22
"467350","澎湖",10.7,119.5631,23.5655,"澎湖縣","馬公市新興路2號","1896/01/01",22
"467410","臺南",40.8,120.2048,22.9932,"臺南市","中西區公園路21號","1897/01/01",21
"467420","永康",8.1,120.2367,23.0384,"臺南市","永康區鹽行里正南五街520巷88號","1947/6/1",21
"467440","高雄",2.3,120.3157,22.566,"高雄市","前鎮區明孝里26鄰漁港南二路2號","1931/1/1",8
"467480","嘉義",26.9,120.4329,23.4959,"嘉義市","西區北新里海口寮路56號","1968/9/1",15
"467490","臺中",84,120.6841,24.1457,"臺中市","北區精武路295號","1896/01/01",18
"467530","阿里山",2413.4,120.8132,23.5082,"嘉義縣","阿里山鄉中正村4鄰東阿里山73-1號","1933/1/1",16
"467540","大武",8.1,120.9038,22.3557,"臺東縣","大武鄉大武街115號","1939/1/1",20
"467550","玉山",3844.8,120.9595,23.4876,"南投縣","信義鄉玉山北峰1號","1943/1/1",4
"467571","新竹",26.9,121.0142,24.8279,"新竹縣","竹北市北崙里3鄰光明五街60號","1991/7/1",14
"467590","恆春",22.1,120.7463,22.0039,"屏東縣","恆春鎮天文路50號","1896/01/01",5
"467610","成功",33.5,121.3734,23.0975,"臺東縣","成功鎮公民路84號","1940/1/1",20
"467620","蘭嶼",324,121.5583,22.037,"臺東縣","蘭嶼鄉紅頭村2號","1941/1/1",20
"467650","日月潭",1017.5,120.9081,23.8813,"南投縣","魚池鄉水社村中山路270巷14號","1940/1/1",4
"467660","臺東",9,121.1546,22.7522,"臺東縣","臺東市大同路106號","1901/1/1",20
"467770","梧棲",31.7,120.5234,24.256,"臺中市","梧棲區臺灣大道十段2號海港大樓6樓","1976/11/1",18
"467790","墾丁雷達站",42,120.808,21.9482,"屏東縣","恆春鎮燈塔路51巷33號","2001/11/1",5
"467990","馬祖",97.8,119.9234,26.1693,"連江縣","南竿鄉四維村6鄰88號","2004/1/1",10
"C0A520","山佳",48,121.402,24.9749,"新北市","樹林區中山路3段5號(山佳國民小學校園內)","1987/6/1",12
"C0A530","坪林",300,121.7094,24.9382,"新北市","坪林區","1987/6/1",12
"C0A540","四堵",401,121.7459,24.8928,"新北市","坪林區碧湖(北宜路旁之碧湖橋道路上行約10分鐘)","1987/6/1",12
"C0A550","泰平",422,121.8237,24.9712,"新北市","雙溪區泰平里8鄰大平路43號(泰平國小分校附近)","1987/6/1",12
"C0A560","福山",405,121.5028,24.7762,"新北市","烏來區福山里李茂岸八號(福山國小旁)","1987/6/1",12
"C0A570","桶後",360,121.598,24.8482,"新北市","烏來區后桶街49號孝義里5-6k處路旁","1987/6/1",12
"C0A640","石碇",241,121.6629,24.9939,"新北市","石碇區湳窟34號附近","2009/12/1",12
"C0A650","火燒寮",287,121.7429,25.0027,"新北市","平溪區東勢里","2009/12/1",12
"C0A660","瑞芳",97,121.8011,25.1132,"新北市","瑞芳區22403龍山里逢甲路360號(義方國民小學校園內)","2009/12/1",12
"C0A860","大坪",362,121.633,25.1659,"新北市","萬里區溪底里香員林6-3號","1995/1/1",12
"C0A870","五指山",685,121.6087,25.1322,"新北市","汐止區國軍示範公墓旁之復興廣播電台門口外","1995/1/1",12
"C0A880","福隆",6,121.9421,25.0178,"新北市","貢寮區東北角海岸國家風景管理處之福隆遊客中心後方","1995/1/1",12
"C0A890","雙溪",40,121.8642,25.036,"新北市","雙溪區雙溪里社區活動中心旁花圃內","1995/1/1",12
"C0A920","富貴角",196,121.5653,25.2638,"新北市","石門區山溪里10鄰九芎林13號旁(石門國小山溪分班附近)","1995/1/1",12
"C0A931","三和",216,121.5952,25.2332,"新北市","金山區三和國小兩湖分校","2014/4/1",12
"C0A940","金山",49,121.644,25.2236,"新北市","金山區中興段404地號(磺港社區活動中心內)","1995/1/1",12
"C0A950","鼻頭角",60,121.9234,25.129,"新北市","瑞芳區鼻頭角燈塔旁","1995/1/1",12
"C0A970","三貂角",96,122.0021,25.0076,"新北市","貢寮區三貂角燈塔旁","1996/1/1",12
"C0A980","社子",11,121.4697,25.1095,"臺北市","士林區延平北路9段212號(台北海洋技術學院內)","1997/12/1",19
"C0A9A0","大直",24,121.5429,25.078,"臺北市","中山區北安路420號(大直高中內)","1997/12/1",19
"C0A9B0","石牌",7,121.5138,25.1163,"臺北市","北投區石牌路1段139號(石牌國中內)","1997/12/1",19
"C0A9C0","天母",35,121.5372,25.1175,"臺北市","士林區天母東路116號(三玉國小內)","1997/12/1",19
"C0A9E0","士林",26,121.503,25.0903,"臺北市","士林區延平北路6段308號(社子國小內)","1997/12/1",19
"C0A9F0","內湖",35,121.5755,25.0794,"臺北市","內湖區內湖路一段520號(內湖高工內)","1997/12/1",19
"C0AC40","大屯山",1079,121.5224,25.1757,"臺北市","北投區湖田段461-6地號(民航局大屯山助航臺)","2006/1/1",19
"C0AC60","三峽",55,121.3697,24.939,"新北市","三峽區復興路238號(三峽國中校園內)","2009/10/1",12
"C0AC70","信義",71,121.5646,25.0378,"臺北市","信義區市府路1號(台北市政府頂樓)","2009/10/1",19
"C0AC80","文山",40,121.5757,25.0024,"臺北市","文山區木柵路4段159巷14-1號(博嘉國小校園內)","2009/12/1",19
"C0ACA0","新莊",25,121.4468,25.0515,"新北市","新莊區中和街193號(榮富國小校園內)","2009/12/1",12
"C0AD00","三芝",86,121.5019,25.2581,"新北市","三芝區育英路22號(三芝國小內)","2009/11/1",12
"C0AD10","八里",27,121.4039,25.1502,"新北市","八里區中山路二段338號(八里國小內)","2009/11/1",12
"C0AD30","蘆洲",20,121.4723,25.0866,"新北市","蘆洲區三民路96號(三民高中內)","2009/11/1",12
"C0AD40","土城",32,121.4452,24.9732,"新北市","土城區金城路一段90號(新北市政府消防局土城分隊大樓樓頂)","2009/11/1",12
"C0AD50","鶯歌",84,121.3463,24.9515,"新北市","鶯歌區尖山埔路106號(鶯歌國小內)","2009/11/1",12
"C0AG90","中和",25,121.4904,24.9926,"新北市","中和區錦和路350號(錦和運動公園)","2011/8/23",12
"C0AH00","汐止",38,121.6588,25.0669,"新北市","汐止區大同路二段394號(汐止國中)","2011/9/1",12
"C0AH10","永和",30,121.5081,25.0113,"新北市","永和區永平路205號(永平高中校園內)","2014/1/1",12
"C0AH30","五分山",755,121.7808,25.0713,"新北市","瑞芳區靜安路四段1巷1號","2016/1/1",12
"C0AH40","平等",426,121.5771,25.1291,"臺北市","士林區平菁街101號(平等國小)","2016/8/1",19
"C0AH50","林口",275,121.3808,25.0722,"新北市","林口區仁愛路二段173號(林口高中內)","2017/1/10",12
"C0AH70","松山",34,121.5504,25.0487,"臺北市","松山區敦化北路1號(臺北市松山運動中心)","2017/4/26",19
"C0AH80","深坑",68,121.6283,25.0027,"新北市","深坑區文山路1段35號(深坑消防分隊樓頂)","2017/8/2",12
"C0AH90","福山植物園",660,121.5814,24.7607,"新北市","烏來區福山植物園內(生活植物區之民俗植物區觀測坪)","2018/3/23",12
"C0AI00","五股",188,121.4273,25.0745,"新北市","五股區外寮路12號","2018/7/10",12
"C0AI10","屈尺",76,121.5448,24.9218,"新北市","新店區屈尺路83號(衛福部北區老人之家)","2018/11/20",12
"C0AI20","白沙灣",25,121.5191,25.2831,"新北市","石門區德茂里下員坑33-6號（白沙灣遊客中心樓頂）","2018/11/28",12
"C0B010","七堵",38,121.7171,25.0948,"基隆市","七堵區東新街22號(基隆商工樓頂)","2018/6/23",9
"C0B020","基隆嶼",86,121.7839,25.1914,"基隆市","中正區基隆嶼","2018/10/26",9
"C0C460","復興",482,121.3523,24.8202,"桃園市","復興區澤仁里中正路248號(介壽國民中學校園內)","2007/10/1",7
"C0C480","桃園",105,121.3232,24.9924,"桃園市","桃園區成功路二段144號(桃園高級農工職業學校校園內)","2008/1/1",7
"C0C490","八德",157,121.2833,24.9287,"桃園市","八德區興仁里中山路94號(八德國民小學校園內)","2011/12/1",7
"C0C540","大園",46,121.226,25.0478,"桃園市","大園區埔心里25鄰中正東路1段189巷35號(埔心國民小學)","2008/1/1",7
"C0C590","觀音",72,121.1533,25.0271,"桃園市","觀音區廣福里10-42號(逸福農場)","2007/10/1",7
"C0C620","蘆竹",19,121.2658,25.0843,"桃園市","蘆竹區坑口里14鄰旁","2011/12/1",7
"C0C630","大溪",209,121.2655,24.8829,"桃園市","大溪區員林路2段450號(員樹林國小校園內)","2007/12/1",7
"C0C650","平鎮",208,121.2146,24.8975,"桃園市","平鎮區中豐路山頂段375巷45號(山豐國民小學校園內)","2007/12/1",7
"C0C660","楊梅",176,121.143,24.9124,"桃園市","楊梅區金華街100號(楊心國小)","2013/8/1",7
"C0C670","龍潭",250,121.2214,24.8701,"桃園市","龍潭區中興路726號（龍潭消防分隊）","2014/4/1",7
"C0C680","龜山",228,121.3866,25.0285,"桃園市","龜山區文化一路250號(國立體育大學田徑場)","2017/4/12",7
"C0C700","中壢",151,121.2564,24.9777,"桃園市","中壢區成章四街120號(內壢高中樓頂)","2017/12/27",7
"C0C710","大溪永福",143,121.325,24.8929,"桃園市","大溪區信義路1165號（永福國小）","2018/12/26",7
"C0D360","梅花",523,121.2086,24.6783,"新竹縣","尖石鄉梅花村1鄰11號(梅花國小校園內)","1987/6/1",14
"C0D390","關西",146,121.1739,24.7982,"新竹縣","關西鎮北斗里北門口41號(關西國中校園內)","2008/1/1",14
"C0D430","峨眉",87,121.0172,24.6905,"新竹縣","峨眉鄉31541峨眉村峨眉街54號(峨眉國中校園內)","2011/12/1",14
"C0D480","打鐵坑",223,121.1508,24.8497,"新竹縣","新埔鎮新北里8鄰大北坑28號旁","2008/1/1",14
"C0D540","橫山",227,121.1169,24.7112,"新竹縣","橫山鄉橫山村橫山段426-6地號上","2007/10/1",14
"C0D550","雪霸",1956,121.1161,24.527,"新竹縣","五峰鄉桃山村民石380號(雪霸農場內)","2007/10/1",14
"C0D560","竹東",147,121.0579,24.7671,"新竹縣","竹東鎮二重國民小學校園內","2008/1/1",14
"C0D570","香山",15,120.9055,24.7469,"新竹市","香山區長興街路旁","2007/12/1",13
"C0D580","寶山",120,121.0252,24.735,"新竹縣","寶山鄉新湖路280號旁","2007/12/1",14
"C0D590","新豐",143,120.9772,24.8707,"新竹縣","新豐鄉上坑村坑子口102-1號(小叮噹科學遊樂區內)","2007/10/1",14
"C0D650","湖口",97,121.0436,24.9048,"新竹縣","湖口鄉信勢村三鄰成功路109號(湖口消防分隊)","2013/10/1",14
"C0D660","新竹市東區",65,120.9869,24.7987,"新竹市","東區光復路二段321號（工研院光復院區6館）","2014/11/1",13
"C0E420","竹南",19,120.8889,24.709,"苗栗縣","竹南鎮大埔里仁愛路1092號(竹南鎮大埔國民小學內)","1987/6/1",6
"C0E430","南庄",258,121.0002,24.6018,"苗栗縣","南庄鄉東村文化路3號(南庄國小校園內)","1987/6/1",6
"C0E520","大湖",320,120.8709,24.4149,"苗栗縣","大湖鄉大寮村5鄰竹高屋34-1號附近","2011/11/1",6
"C0E530","三義",341,120.766,24.4109,"苗栗縣","三義鄉廣盛村10鄰122號(三義高中內)","1990/7/21",6
"C0E540","後龍",32,120.7839,24.6065,"苗栗縣","後龍鎮後龍溪橋旁高地","2011/11/1",6
"C0E550","明德",84,120.8854,24.5835,"苗栗縣","頭屋鄉明德水庫水利工作站屋頂上","2011/11/1",6
"C0E590","通霄",40,120.7046,24.4719,"苗栗縣","通霄鎮城北里1鄰13號(通霄鎮城中國民小學內)","2011/11/1",6
"C0E610","馬都安",850,120.9302,24.4513,"苗栗縣","泰安鄉錦水村(由泰安開車約2小時瞭望台旁)","1990/7/21",6
"C0E730","頭份",26,120.9122,24.6882,"苗栗縣","頭份市中正路219號(苗栗縣頭份鎮頭份國小校園內)","2007/12/1",6
"C0E740","造橋",27,120.8648,24.6371,"苗栗縣","造橋鄉造橋村14鄰3號(造橋國小)","2011/11/1",6
"C0E750","苗栗",62,120.8246,24.5646,"苗栗縣","苗栗市中正路241號(建功國小)","2011/11/1",6
"C0E780","銅鑼",160,120.7909,24.4897,"苗栗縣","銅鑼鄉福興村文化街1號(銅鑼國小)","2011/11/1",6
"C0E790","卓蘭",344,120.8248,24.3128,"苗栗縣","卓蘭鎮中山路127號(卓蘭鎮公所)","2011/11/1",6
"C0E810","西湖",53,120.7485,24.5629,"苗栗縣","西湖鄉二湖村2鄰22號(僑文國小)","2011/11/1",6
"C0E820","獅潭",220,120.92,24.5391,"苗栗縣","獅潭鄉新店村11鄰103-2號(獅潭鄉公所圖書館樓頂)","2011/12/1",6
"C0E830","苑裡",37,120.6531,24.4397,"苗栗縣","苑裡鎮信義路1號(苑裡鎮公所)","2013/12/1",6
"C0E850","大河",104,120.9486,24.6181,"苗栗縣","三灣鄉大河村48號(大河派出所)","2015/8/4",6
"C0E860","觀霧2",2616,121.1132,24.506,"苗栗縣","南庄鄉","2016/1/1",6
"C0E870","高鐵苗栗",34,120.8261,24.6073,"苗栗縣","後龍鎮高鐵三路268號(高鐵苗栗站外)","2017/8/1",6
"C0F000","大肚",273,120.5721,24.153,"臺中市","大肚區瑞井里遊園路一段2號(臺中區監理所內)","2011/11/1",18
"C0F0A0","雪山圈谷",3587,121.2363,24.3886,"臺中市","和平區(往雪山主峰路上9.8公里處右邊)","2016/7/15",18
"C0F0B0","石岡",311,120.7776,24.2761,"臺中市","石岡區石岡街6號?(臺中市石岡區衛生所)","2016/10/1",18
"C0F0C0","中坑",983,120.9033,24.2485,"臺中市","和平區中坑里中坑段39地號內","2017/6/14",18
"C0F0D0","審馬陣",3171,121.4203,24.3817,"臺中市","和平區南湖大山指標16.2K處(審馬陣山附近)","2017/12/28",18
"C0F0E0","南湖圈谷",3557,121.4447,24.3637,"臺中市","和平區南湖大山指標20K處(南湖主峰東峰岔路附近)","2017/12/28",18
"C0F850","東勢",379,120.833,24.2464,"臺中市","東勢區東關路647號(東勢林區管理處雙崎工作站內)","2011/11/1",18
"C0F861","梨山",2215,121.2437,24.2475,"臺中市","和平區梨山里福壽路29號（福壽山農場）","2004/7/1",18
"C0F930","大甲",100,120.6404,24.3477,"臺中市","大甲區開元路71號(大甲高級工業職業學校內)","2011/11/1",18
"C0F970","大坑",145,120.7223,24.1731,"臺中市","北屯區軍福十三路268號(東山消防分隊)","2011/11/1",18
"C0F9A0","中竹林",425,120.7511,24.1036,"臺中市","太平區長龍路中埔二號橋至站址直線距離約1.7km","2011/11/1",18
"C0F9I0","神岡",194,120.6583,24.2725,"臺中市","神岡區三民路639號(圳堵國小校園南側大樓屋頂平台)","2011/11/1",18
"C0F9K0","大安",30,120.588,24.3451,"臺中市","大安區中庄里中山南路296號(大安國小)","2011/11/1",18
"C0F9L0","后里",253,120.7297,24.3104,"臺中市","后里區甲后路110號(后里國小)","2011/11/1",18
"C0F9M0","豐原",230,120.7207,24.2543,"臺中市","豐原區豐榮里12鄰新生北路155號(豐原國小)","2011/11/1",18
"C0F9N0","大里",75,120.7014,24.0925,"臺中市","大里區文化街120號(塗城國小)","2011/11/1",18
"C0F9O0","潭子",175,120.7039,24.2131,"臺中市","潭子區中山路二段435號(潭子國小)","2011/11/1",18
"C0F9P0","清水",26,120.5622,24.3123,"臺中市","清水區護岸路37號(高美國小)","2011/11/1",18
"C0F9Q0","外埔",149,120.7057,24.3478,"臺中市","外埔區土城里土城西路55號(安定國小)","2011/11/1",18
"C0F9R0","龍井",20,120.529,24.1845,"臺中市","龍井區西里龍門路51號(龍井國小)","2011/11/1",18
"C0F9S0","烏日",43,120.6241,24.1071,"臺中市","烏日區中山路二段196號(烏日國小)","2011/11/1",18
"C0F9T0","西屯",111,120.6413,24.1795,"臺中市","西屯區西屯路二段300號(西屯國小)","2011/11/1",18
"C0F9U0","南屯",74,120.638,24.137,"臺中市","南屯區黎明路一段968號(南屯國小)","2011/11/1",18
"C0F9V0","新社",525,120.8158,24.2002,"臺中市","新社區大南里興中街46號(農委會種苗改良繁殖場)","2011/11/1",18
"C0F9X0","大雅(中科園區)",166,120.6245,24.2153,"臺中市","大雅區中部科學工業園區臺中園區(汙水處理機房樓頂)","2015/8/21",18
"C0F9Y0","桃山",3313,121.3038,24.4327,"臺中市","和平區(位於往桃山山屋叉路解說牌附近)","2016/7/15",18
"C0F9Z0","雪山東峰",3193,121.2687,24.3888,"臺中市","和平區(位於雪山東峰直升機停機坪東南東方60公尺處)","2016/7/15",18
"C0G620","芬園",110,120.6213,24.0157,"彰化縣","芬園鄉楓坑村大埔崙產業道路上(芬園往臺灣民俗村路上)","2011/11/1",17
"C0G640","鹿港",17,120.4305,24.0753,"彰化縣","鹿港鎮海埔里顏厝巷67號(行政院退輔會魚殖管理處彰化分場內)","1992/7/1",17
"C0G650","員林",34,120.5856,23.9465,"彰化縣","員林市萬年里明倫路2號(明倫國中內)","1992/7/1",17
"C0G660","溪湖",27,120.4791,23.9484,"彰化縣","溪湖鎮大竹里彰水路2段725號(湖南國民小學內)","2011/11/1",17
"C0G720","溪州",50,120.4991,23.8516,"彰化縣","溪州鄉溪下路四段560號(溪州鄉公所)","2015/7/3",17
"C0G730","二林",27,120.3761,23.9033,"彰化縣","二林鎮仁愛路200號(二林消防分隊)","2015/7/3",17
"C0G740","大城",24,120.3209,23.8525,"彰化縣","大城鄉東城村中平路185號(大城鄉公所)","2015/7/3",17
"C0G750","竹塘",31,120.3825,23.8466,"彰化縣","竹塘鄉永安村東陽路二段221號(永安派出所)","2015/7/3",17
"C0G760","高鐵彰化",53,120.5746,23.8752,"彰化縣","田中鎮站區路二段99號(高鐵彰化站外)","2017/8/1",17
"C0G770","福興",15,120.4377,24.0413,"彰化縣","福興鄉員鹿路二段270號(福興國中)","2011/11/1",17
"C0G780","秀水",27,120.5039,24.0341,"彰化縣","秀水鄉安東村中山路257號(秀水國小)","2011/11/1",17
"C0G790","花壇",27,120.5523,24.0161,"彰化縣","花壇鄉中庄村中橋街226號(華南國小)","2011/11/1",17
"C0G800","埔鹽",15,120.4317,24.0004,"彰化縣","埔鹽鄉永樂村永樂路600號(永樂國小)","2011/11/1",17
"C0G810","埔心",26,120.5255,23.9476,"彰化縣","埔心鄉舊館村員鹿路四段201號(舊館國小)","2011/11/1",17
"C0G820","田尾",29,120.5094,23.9017,"彰化縣","田尾鄉中正路二段101號(仁豐國小)","2011/11/1",17
"C0G830","埤頭",27,120.4528,23.866,"彰化縣","埤頭鄉大湖村大湖路260號(大湖國小)","2011/11/1",17
"C0G840","北斗",32,120.5142,23.8776,"彰化縣","北斗鎮斗苑路二段150號(螺陽國小)","2011/11/1",17
"C0G850","田中",62,120.5883,23.8568,"彰化縣","田中鎮中州路一段177號(田中國小)","2011/11/1",17
"C0G860","社頭",45,120.5862,23.8976,"彰化縣","社頭鄉社斗路一段258號(社頭國小)","2011/11/1",17
"C0G870","芳苑",12,120.32,23.9223,"彰化縣","芳苑鄉仁愛村斗苑路芳苑段211號(芳苑國中)","2011/11/1",17
"C0G880","二水",92,120.6173,23.8107,"彰化縣","二水鄉文化村119號(二水國小)","2011/11/1",17
"C0G890","伸港",24,120.4844,24.1489,"彰化縣","伸港鄉新港村和平路60號(新港國小)","2011/11/1",17
"C0H890","埔里",440,120.9524,23.9722,"南投縣","埔里鎮大城里大城路169號(南投縣立大成國民中學內)","2016/1/1",4
"C0H950","中寮",192,120.7664,23.8844,"南投縣","中寮鄉復興村初中巷50號(中寮國中校園內)","2011/11/1",4
"C0H960","草屯",120,120.6809,23.9737,"南投縣","草屯鎮中山里草鞋墩1街8號(草屯鎮公所樓頂)","2011/11/1",4
"C0H990","昆陽",3076,121.2736,24.1213,"南投縣","仁愛鄉昆陽警察局後方下坡處(太魯閣國家公園)石碑後20公尺","1992/7/1",4
"C0H9A0","神木村",1595,120.8437,23.5327,"南投縣","信義鄉神木村神木工作分站後方山坡上(對高岳營林區29林班地444號土地)","1999/2/1",4
"C0H9C0","合歡山",3402,121.2725,24.1434,"南投縣","仁愛鄉(近合歡山三角點，由松雪樓開車約15分鐘，大甲溪事業區第81林班)","2008/2/25",4
"C0I010","廬山",1562,121.1818,24.0333,"南投縣","仁愛鄉大同村仁和路21號(埔里-霧社收費站-盧山電力公司瞭望台)","1992/7/1",4
"C0I080","信義",536,120.851,23.6897,"南投縣","信義鄉自強村綠美巷(內茅埔營林區23林班地)","2016/1/1",4
"C0I090","鳳凰",910,120.7873,23.7281,"南投縣","鹿谷鄉鳳凰鳥園旁","1992/7/1",4
"C0I110","竹山",161,120.6882,23.7612,"南投縣","竹山鎮延和里向學街32號(竹山國民小學內)","1992/7/1",4
"C0I360","水里",300,120.8498,23.8126,"南投縣","水里鄉中山路一段515號(玉山國家公園管理處)","2016/1/1",4
"C0I370","魚池",671,120.9414,23.8957,"南投縣","魚池鄉東池村魚池街194號(魚池鄉衛生所)","2016/1/1",4
"C0I380","集集",258,120.8015,23.8282,"南投縣","集集鎮民生東路1號(農委會特有生物研究保育中心)","2016/1/1",4
"C0I390","仁愛",1184,121.1322,24.0221,"南投縣","仁愛鄉仁和路50號(台電公司仁愛服務所)","2016/1/1",4
"C0I410","名間",180,120.7014,23.8371,"南投縣","名間鄉董門巷2號(名間鄉立體停車場)","2016/1/1",4
"C0I420","國姓",305,120.8551,24.0378,"南投縣","國姓鄉民族街40號(國姓鄉老人文康活動中心)","2016/1/1",4
"C0I460","南投",110,120.6792,23.9132,"南投縣","南投市龍泉里玉井街5號(南投市公所樓頂)","2015/9/21",4
"C0I480","梅峰",2165,121.1736,24.0853,"南投縣","仁愛鄉大同村仁和路215號(梅峰農場)","2016/1/1",4
"C0I490","萬大林道",1601,121.0914,23.9282,"南投縣","仁愛鄉曲冰段(萬大林道約7.2k附近高地)","2016/1/1",4
"C0I520","玉山風口",3860,120.956,23.4705,"南投縣","信義鄉(玉山主峰往北峰叉路空地附近)","2016/7/15",4
"C0I530","小奇萊",3014,121.2957,24.1318,"南投縣","仁愛鄉小奇萊步道指標1.5K處附近","2017/12/28",4
"C0I540","奇萊稜線",3344,121.3265,24.1092,"南投縣","仁愛鄉奇萊連峰指標6.4K處(奇萊山屋附近)","2017/12/28",4
"C0K240","草嶺",1132,120.6935,23.5956,"雲林縣","古坑鄉草嶺村龍頭","1992/7/1",11
"C0K250","崙背",12,120.3189,23.7556,"雲林縣","崙背鄉阿勸村阿勸農場(阿勸段487號)","2016/1/1",11
"C0K280","四湖",23,120.2271,23.6304,"雲林縣","四湖鄉湖西村中正路766號(四湖國民中學內)","1993/3/1",11
"C0K291","宜梧",8,120.1693,23.5363,"雲林縣","口湖鄉湖口村170號央廣口湖分台內(憲兵排樓頂)","2010/9/27",11
"C0K330","虎尾",38,120.442,23.7192,"雲林縣","虎尾鎮林森路一段64號(中正國民小學內)","1993/3/1",11
"C0K390","土庫",31,120.3956,23.679,"雲林縣","土庫鎮建國路41號(土庫消防分隊)","2015/7/3",11
"C0K400","斗六",65,120.5411,23.7206,"雲林縣","斗六市鎮北路345-1號(斗六消防分隊)","2015/7/3",11
"C0K410","北港",20,120.2928,23.574,"雲林縣","北港鎮大同路565號(北港消防分隊)","2015/7/3",11
"C0K420","西螺",42,120.4674,23.8004,"雲林縣","西螺鎮公正路211號(西螺消防分隊)","2015/7/3",11
"C0K430","褒忠",30,120.3036,23.6909,"雲林縣","褒忠鄉中正路451號(褒忠鄉公所)","2015/7/3",11
"C0K440","二崙",35,120.4089,23.7728,"雲林縣","二崙鄉中正路80號(二崙消防分隊)","2016/1/1",11
"C0K450","大埤",35,120.4315,23.6461,"雲林縣","大埤鄉中山路8號(大埤鄉公所)","2015/7/3",11
"C0K460","斗南",60,120.4784,23.6787,"雲林縣","斗南鎮延平路二段266號(斗南鎮停一立體停車場)","2015/7/3",11
"C0K470","林內",97,120.6096,23.7487,"雲林縣","林內鄉中正路685號(林內消防分隊)","2016/1/1",11
"C0K480","莿桐",56,120.5024,23.7612,"雲林縣","莿桐鄉和平路53號(莿桐鄉公所)","2016/1/1",11
"C0K490","古坑",91,120.5598,23.6543,"雲林縣","古坑鄉中山路393號(古坑消防分隊)","2015/7/3",11
"C0K500","元長",12,120.315,23.6498,"雲林縣","元長鄉長南村仁愛街2號(元長鄉公所)","2015/7/3",11
"C0K510","水林",10,120.246,23.5729,"雲林縣","水林鄉水北村水林路12號(水林鄉公所)","2015/7/3",11
"C0K520","雲林東勢",10,120.1548,23.6744,"雲林縣","東勢鄉東南村所前街3號(東勢鄉公所)","2015/7/3",11
"C0K530","臺西",12,120.1976,23.7015,"雲林縣","台西鄉中山路110巷38號(臺西消防分隊)","2015/7/3",11
"C0K550","蔦松",15,120.2297,23.5143,"雲林縣","水林鄉松中村蔦松路213號(蔦松國小)","2016/1/1",11
"C0K560","棋山",117,120.6034,23.6865,"雲林縣","古坑鄉棋盤村棋山49號(棋山國小)","2016/1/1",11
"C0K580","高鐵雲林",26,120.4179,23.7375,"雲林縣","虎尾鎮站前東路301號(高鐵雲林站外)","2017/8/1",11
"C0M410","馬頭山",245,120.582,23.3244,"嘉義縣","大埔鄉永樂村1鄰內灣仔2號","1988/12/1",16
"C0M520","東後寮",15,120.2481,23.3699,"嘉義縣","義竹鄉東光村7號(台糖東後寮農場)","2015/7/3",16
"C0M530","奮起湖",1385,120.6993,23.4939,"嘉義縣","竹崎鄉阿里山事業區148林班地(中興苗圃內)","1993/3/1",16
"C0M640","中埔",155,120.5229,23.4254,"嘉義縣","中埔鄉中埔村128號(中埔鄉公所)","2015/7/3",16
"C0M650","朴子",20,120.239,23.4346,"嘉義縣","朴子市竹村里36號(竹村國小)","2015/7/3",16
"C0M660","溪口",40,120.4036,23.6041,"嘉義縣","溪口鄉中正東路103號(溪口國中學生活動中心)","2015/7/3",16
"C0M670","大林",43,120.4584,23.6006,"嘉義縣","大林鎮新興街110號(大林地政事務所)","2015/7/3",16
"C0M680","太保",37,120.3315,23.4551,"嘉義縣","太保市太保里31號(太保市圖書館)","2015/7/3",16
"C0M690","水上",33,120.3889,23.4197,"嘉義縣","水上鄉三鎮村三鎮路119號(水上消防分隊)","2015/7/3",16
"C0M700","竹崎",150,120.5555,23.5262,"嘉義縣","竹崎鄉竹崎村舊車站79號(竹崎消防分隊)","2015/7/3",16
"C0M710","東石",15,120.1539,23.4589,"嘉義縣","東石鄉東石村3號(東石鄉公所)","2015/7/3",16
"C0M720","番路",225,120.5542,23.4647,"嘉義縣","番路鄉下坑村蔡公店101號(番路鄉公所)","2015/7/3",16
"C0M730","嘉義市東區",40,120.4605,23.4577,"嘉義市","親水路123?號(第五河川局水情中心)","2015/7/3",15
"C0M740","六腳",15,120.2906,23.4929,"嘉義縣","六腳鄉蒜頭村73-2號(六腳消防分隊)","2015/7/3",16
"C0M750","布袋",10,120.1678,23.3809,"嘉義縣","布袋鎮龍江里2-2號(布袋消防分隊)","2015/7/3",16
"C0M760","民雄",40,120.4285,23.5518,"嘉義縣","民雄鄉文化路7號(民雄鄉公所)","2015/7/3",16
"C0M770","嘉義梅山",164,120.5556,23.5854,"嘉義縣","梅山鄉中山路282號(梅山鄉公所)","2015/7/3",16
"C0M780","鹿草",30,120.3084,23.4113,"嘉義縣","鹿草鄉西井村287號(鹿草鄉公所)","2015/7/3",16
"C0M790","新港",15,120.3457,23.5533,"嘉義縣","新港鄉公園路28號(新港消防分隊)","2015/7/3",16
"C0M800","茶山",440,120.6648,23.2991,"嘉義縣","阿里山鄉茶山路62號之1(茶山村衛生室)","2016/1/1",16
"C0M810","里佳",1354,120.7166,23.3891,"嘉義縣","阿里山鄉里佳村","2016/1/1",16
"C0M820","達邦",980,120.7495,23.454,"嘉義縣","阿里山鄉達邦村21號(鄒族自然與文化中心)","2016/1/1",16
"C0M830","山美",540,120.6682,23.3838,"嘉義縣","阿里山鄉山美村(原阿里山鄉農會山美辦事處)","2016/1/1",16
"C0M850","表湖",695,120.6417,23.2419,"嘉義縣","大埔鄉溪頭段1地號","2018/2/14",16
"C0O810","曾文",161,120.4973,23.2197,"臺南市","楠西區曾文新村(曾文水庫管理局內)","1988/12/1",21
"C0O830","北寮",127,120.495,23.0796,"臺南市","南化區北寮里48-4號","2013/4/18",21
"C0O840","王爺宮",134,120.4009,23.2221,"臺南市","六甲區王爺里24號（六甲國小湖東分校）","2013/12/1",21
"C0O860","大內",38,120.3608,23.1189,"臺南市","大內區74201大內里63號(大內國民小學)","2013/8/1",21
"C0O900","善化",9,120.2972,23.1129,"臺南市","善化區益民寮60號(亞洲蔬菜研究發展中心內)","1988/12/1",21
"C0O930","玉井",69,120.4606,23.126,"臺南市","玉井區台灣糖業公司玉井糖廠","1988/12/1",21
"C0O950","安南",4,120.1449,23.0767,"臺南市","安南區公學路6段589號(學東國民小學內)","2013/8/1",21
"C0O960","崎頂",112,120.3693,22.9595,"臺南市","龍崎區中坑里5鄰13號","2013/4/18",21
"C0O970","虎頭埤",71,120.3479,23.0214,"臺南市","新化區口埤18號(新化分場)","2013/8/1",21
"C0O980","新市",18,120.2982,23.0616,"臺南市","新市區永就里53號(番子寮農場)","2013/8/1",21
"C0O990","媽廟",18,120.2935,22.9918,"臺南市","歸仁區中正北路3段60號(保西國民小學內)","2013/12/1",21
"C0R100","尾寮山",1006,120.6839,22.8331,"屏東縣","三地門鄉口社檢查站車程約2小時(尾寮山瞭望台旁)","1992/5/1",5
"C0R130","阿禮",1040,120.7437,22.7429,"屏東縣","霧台鄉(屏東事業區第46林班)由山地文化村開車約2小時需徒步轉波站前面","2013/8/1",5
"C0R140","瑪家",740,120.6866,22.6829,"屏東縣","瑪家鄉瑪家村4鄰24號(後山)","2013/8/1",5
"C0R150","三地門",105,120.6399,22.7099,"屏東縣","內埔鄉水門村成功路83號(國立內埔高級農工職業學校內)","1992/5/1",5
"C0R160","鹽埔新圍",45,120.5308,22.7396,"屏東縣","鹽埔鄉彭厝國民小學校園","2013/12/1",5
"C0R170","屏東",26,120.4941,22.6603,"屏東縣","屏東市復興路245號(台灣糖業公司屏東區處場區內)","2013/12/1",5
"C0R190","赤山",32,120.6143,22.5923,"屏東縣","萬巒鄉建興路40號（赤山國小）","2013/12/1",5
"C0R220","潮州",23,120.54,22.5344,"屏東縣","潮州鎮光春路290號(屏東縣立光春國民中學內)","1992/5/1",5
"C0R240","來義",87,120.6251,22.5273,"屏東縣","萬巒鄉新隆路64號萬巒農場（佳佐段180號）","2013/12/1",5
"C0R260","春日",76,120.6283,22.3704,"屏東縣","春日鄉鄉公所資源回收場旁","2013/12/1",5
"C0R270","琉球嶼",51,120.3622,22.3322,"屏東縣","琉球鄉天台段596及597地號","1997/7/1",5
"C0R280","檳榔",242,120.8368,22.0761,"屏東縣","滿州鄉長樂村大公路14號(往南仁山方向)","1997/7/1",5
"C0R350","貓鼻頭",35,120.7358,21.9218,"屏東縣","恆春鎮(貓鼻頭風景區內)","1997/7/1",5
"C0R360","墾丁",20,120.8022,21.9456,"屏東縣","恆春鎮墾丁里牧場路1號(畜產試驗所恆春分所內)","1997/7/1",5
"C0R370","佳樂水",55,120.8446,21.992,"屏東縣","滿州鄉港口村茶山路14號(佳樂山林務局工作站內)","1997/7/1",5
"C0R380","枋寮",2,120.5896,22.3694,"屏東縣","枋寮鄉枋寮村德興路197號(枋寮國民小學操場旁)","1997/7/1",5
"C0R400","楓港",15,120.6927,22.1902,"屏東縣","枋山鄉善餘村光復路24號(楓港國民小學操場旁)","1997/7/1",5
"C0R420","牡丹池山",504,120.8406,22.1678,"屏東縣","牡丹鄉電信轉播臺旁步行約3分鐘(恆春事業區21林班地)","1999/4/15",5
"C0R470","高樹",103,120.6008,22.8264,"屏東縣","高樹鄉興中路329號(高樹鄉公所)","2013/8/1",5
"C0R480","長治",57,120.5426,22.6931,"屏東縣","長治鄉德成村中興路572-1號(長治消防分隊)","2013/8/1",5
"C0R490","九如",49,120.4905,22.7405,"屏東縣","九如鄉九如路二段416號(九如鄉公所)","2013/8/1",5
"C0R510","萬丹",31,120.4904,22.5878,"屏東縣","萬丹鄉萬安村和平東路69號(萬丹消防分隊)","2013/8/1",5
"C0R520","崁頂",18,120.5069,22.5148,"屏東縣","崁頂鄉崁頂村興農路20之10號(崁頂消防分隊)","2013/8/1",5
"C0R530","林邊",16,120.51,22.4308,"屏東縣","林邊鄉光林村和平路45號(林邊鄉衛生所)","2013/8/1",5
"C0R540","佳冬",17,120.5524,22.4195,"屏東縣","佳冬鄉佳昌路2號(佳冬鄉公所)","2013/8/1",5
"C0R550","新埤",38,120.5829,22.4679,"屏東縣","新埤鄉民眾路103號(新埤消防分隊)","2013/8/1",5
"C0R560","新園",22,120.4616,22.5434,"屏東縣","新園鄉仙吉村店口路116號(新園消防分隊)","2013/8/1",5
"C0R570","麟洛",37,120.5272,22.6508,"屏東縣","麟洛鄉中山路158號(麟洛鄉公所)","2013/12/1",5
"C0R580","南州",10,120.5027,22.4859,"屏東縣","南州鄉溪南村人和路241號(南州消防分隊)","2013/8/1",5
"C0R590","里港",72,120.4946,22.7792,"屏東縣","里港鄉永春村中山路104號(里港鄉公所)","2013/8/1",5
"C0R600","舊泰武",766,120.6649,22.5882,"屏東縣","泰武鄉泰武村良武巷101號(舊泰武村老人活動中心)","2013/12/1",5
"C0R620","墾雷",34,120.8553,21.9008,"屏東縣","恆春鎮燈塔路51巷33號(氣象局墾丁雷達站區內)","2016/6/22",5
"C0R640","東港",21,120.4407,22.4625,"屏東縣","東港鎮豐漁里豐漁街67號（水產試驗所東港生技研究中心）","2018/8/11",5
"C0R650","竹田",29,120.5434,22.5849,"屏東縣","竹田鄉中正路123號(竹田鄉公所清潔隊)","2018/8/11",5
"C0S660","下馬",794,121.0703,23.1504,"臺東縣","海端鄉廢棄下馬派出所旁","2019/6/7",20
"C0S680","紅葉山",1659,121.0392,22.9198,"臺東縣","延平鄉紅葉山瞭望臺旁(延平林道23k處步行約50分鐘)","1997/7/1",20
"C0S690","太麻里",522,120.9853,22.609,"臺東縣","太麻里鄉(往金針山茶區之半路上)","1997/7/1",20
"C0S700","知本",507,121.0056,22.6849,"臺東縣","卑南鄉溫泉村(溫泉國小之樂山分校內)","1997/7/1",20
"C0S710","鹿野",382,121.123,22.9177,"臺東縣","鹿野鄉鹿野高台高眺亭公廁東側草地上","1997/7/1",20
"C0S730","綠島",110,121.4753,22.6672,"臺東縣","綠島鄉","1997/7/1",20
"C0S740","池上",289,121.2095,23.1196,"臺東縣","池上鄉新興村104號(退輔會臺東農場內)","1997/7/1",20
"C0S750","向陽",2280,120.9861,23.2484,"臺東縣","海端鄉向陽(公路局向陽工務段圍牆內)","1997/7/1",20
"C0S760","紅石",1621,121.1262,23.0691,"臺東縣","海端鄉紅石(紅石瞭望臺旁)","1997/7/1",20
"C0S770","大溪山",375,120.9433,22.4785,"臺東縣","太麻里鄉多良村(廢棄中華電信轉播站旁)","1997/7/1",20
"C0S790","金崙",236,120.9669,22.5381,"臺東縣","太麻里鄉金崙段0304-1地號","2004/6/1",20
"C0S810","東河",65,121.304,22.9727,"臺東縣","東河鄉北東河17鄰26號(東河國民小學操場旁)","2004/6/1",20
"C0S830","長濱",288,121.412,23.2868,"臺東縣","長濱鄉竹湖村移民橋後方山頂三角點旁","2004/6/1",20
"C0S840","南田",22,120.8892,22.2797,"臺東縣","達仁鄉南田村南田風景區公園對面","2004/6/1",20
"C0S890","關山",238,121.175,23.0395,"臺東縣","關山鎮親水公園內","2016/1/1",20
"C0S900","蘭嶼高中",27,121.5121,22.0491,"臺東縣","蘭嶼鄉椰油村37號（蘭嶼高中內）","2018/10/26",20
"C0S910","蘭嶼燈塔",212,121.4951,22.083,"臺東縣","蘭嶼鄉椰油段1-7地號（蘭嶼燈塔旁）","2018/10/26",20
"C0SA80","土?",136,120.8875,22.4529,"臺東縣","達仁鄉土?村1鄰10號(土?國民小學操場旁)","2019/6/7",20
"C0T790","大禹嶺",2830,121.3161,24.1861,"花蓮縣","秀林鄉立霧溪事業區67林班地(救國團大禹山莊)","1996/1/1",2
"C0T820","天祥",550,121.4956,24.1796,"花蓮縣","秀林鄉立霧溪事業區80林班地(天祥祥德寺)","1996/1/1",2
"C0T870","鯉魚潭",135,121.5089,23.9356,"花蓮縣","壽豐鄉池南村池南路一段8號(鯉魚潭風景區旁)","1996/1/1",2
"C0T900","西林",160,121.4415,23.8119,"花蓮縣","萬榮鄉西林路8鄰114號(西林國民小學運動場旁)","2010/7/1",2
"C0T960","光復",120,121.425,23.6607,"花蓮縣","光復鄉大進村糖廠街19號(台糖公司花蓮光復糖廠內)","1996/1/1",2
"C0T9A0","月眉山",498,121.5398,23.8099,"花蓮縣","壽豐鄉月眉山旁的小山丘上(過米棧大橋往山上水璉方向至四號橋左轉之山上)","2000/10/1",2
"C0T9B0","水源",558,121.5372,23.9919,"花蓮縣","秀林鄉原林務局水源段的苗圃內","2000/10/1",2
"C0T9D0","和中",8,121.741,24.2668,"花蓮縣","秀林鄉秀林村62號(和平國小和中分校校園內)","2004/6/1",2
"C0T9E0","大坑",415,121.582,23.8806,"花蓮縣","壽豐鄉10鄰山嶺80之1號(中華電信公司賀田山機房)旁","2004/6/1",2
"C0T9F0","水璉",251,121.5425,23.7971,"花蓮縣","壽豐鄉水璉村","2004/6/1",2
"C0T9G0","鳳林山",605,121.4201,23.7353,"花蓮縣","鳳林鎮","2004/6/1",2
"C0T9H0","加路蘭山",725,121.5274,23.6829,"花蓮縣","豐濱鄉臨海段776-4號","2004/6/1",2
"C0T9I0","豐濱",152,121.5148,23.5839,"花蓮縣","豐濱鄉豐濱村","2004/6/1",2
"C0T9M0","靜浦",92,121.495,23.4552,"花蓮縣","豐濱鄉靜浦村活動中心後山上","1997/7/1",2
"C0U520","雙連埤",517,121.6413,24.753,"宜蘭縣","員山鄉雙連埤地區(需徒步20分鐘)","2010/7/1",1
"C0U600","礁溪",10,121.7655,24.8175,"宜蘭縣","礁溪鄉礁溪路四段23號(礁溪國民中學教室後宿舍旁)","1996/1/1",1
"C0U650","玉蘭",442,121.5871,24.6753,"宜蘭縣","大同鄉松羅村鹿場路11號(往松羅山頂瞭望亭旁)","1996/1/1",1
"C0U710","太平山",1942,121.5257,24.5055,"宜蘭縣","大同鄉太平山93林班地(林務局路標22.3k處)","1996/1/1",1
"C0U720","南山",1260,121.3817,24.4374,"宜蘭縣","大同鄉南山村4鄰埤南巷31-3號(南山國民小學內)","2018/3/23",1
"C0U750","龜山島",398,121.9531,24.8417,"宜蘭縣","頭城鎮龜山島山頂401高地觀景台","2002/9/13",1
"C0U760","東澳",22,121.8332,24.522,"宜蘭縣","南澳鄉東岳村蘇花路三段209號(東澳國小校園內)","2004/6/1",1
"C0U770","南澳",5,121.8102,24.4494,"宜蘭縣","南澳鄉中央氣象局地震中心系統維護課之南澳地震站","2005/10/1",1
"C0U780","五結",15,121.7979,24.6864,"宜蘭縣","五結鄉五結中路二段88號(五結國小)","2010/7/1",1
"C0U860","頭城",5,121.8308,24.8532,"宜蘭縣","頭城鎮協天路468號(中華電信頭城海纜站內)","2017/12/1",1
"C0U870","大礁溪",474,121.6751,24.791,"宜蘭縣","礁溪鄉二結村一鄰9-1號(國立宜蘭大學實驗林場)","2017/12/1",1
"C0U890","三星",116,121.653,24.6681,"宜蘭縣","三星鄉月眉街54號(三星國中)","2017/12/1",1
"C0U900","內城",63,121.6877,24.7181,"宜蘭縣","員山鄉內城路545號(內城國民中小學)","2017/12/1",1
"C0U910","冬山",17,121.7937,24.6337,"宜蘭縣","冬山鄉冬山路98-5號(冬山消防分隊)","2017/12/1",1
"C0U940","羅東",25,121.7493,24.6818,"宜蘭縣","羅東鎮羅東運動公園南側(北成路二段停車場旁自行車道入口)","2017/12/1",1
"C0U950","鶯子嶺",1012,121.7924,24.8975,"宜蘭縣","頭城鎮鶯子嶺通信站區內","2017/12/1",1
"C0U960","翠峰湖",1885,121.608,24.5109,"宜蘭縣","大同鄉太平山翠峰湖停車場木棧道旁","2018/3/23",1
"C0U970","大福",7,121.8139,24.8006,"宜蘭縣","壯圍鄉大福路一段62巷26號(大福國小)","2017/12/1",1
"C0U980","坪林石牌",573,121.774,24.8648,"宜蘭縣","頭城鎮與新北市坪林區交界附近之國有林班地(位於坪林石牌附近山區)","2017/12/1",1
"C0U990","員山",31,121.7225,24.7444,"宜蘭縣","員山鄉員山村復興路39號(員山國小)","2017/12/1",1
"C0UA00","土場",392,121.4953,24.5765,"宜蘭縣","大同鄉土場","2018/3/23",1
"C0UA10","鴛鴦湖",1711,121.4122,24.5903,"宜蘭縣","大同鄉100線林道約15K(太平山事業區32林班內，鴛鴦湖工作站旁空地)","2018/3/23",1
"C0UA20","多加屯",2619,121.3732,24.3686,"宜蘭縣","大同鄉南湖大山指標8.4K處(多加屯避難山屋附近)","2017/12/28",1
"C0UA30","白嶺",1397,121.519,24.5278,"宜蘭縣","大同鄉太平山白嶺苗圃內","2018/3/23",1
"C0UA40","西德山",1121,121.7526,24.5606,"宜蘭縣","南澳鄉安平坑林道(力霸產業道路)附近山區(南澳事業區28林班內)","2018/5/9",1
"C0UA50","西帽山",808,121.8026,24.5554,"宜蘭縣","南澳鄉台泥大白山運石道附近山區(羅東事業區96林班內)","2018/5/9",1
"C0UA60","樟樹山",566,121.7833,24.4139,"宜蘭縣","南澳鄉武塔村樟樹山附近山區","2018/3/23",1
"C0UA70","桃源谷",547,121.8889,24.9626,"宜蘭縣","頭城鎮及新北市貢寮區交界之桃源谷附近空地","2018/3/23",1
"C0V210","復興",734,120.8061,23.2224,"高雄市","桃源區復興里復興巷1鄰15號","2013/4/18",8
"C0V250","甲仙",298,120.5918,23.0801,"高雄市","甲仙區(甲仙國民中學操場後方小山丘上)","1992/5/1",8
"C0V260","月眉",126,120.5399,22.971,"高雄市","杉林區月眉里山仙路1號月眉農場","2013/8/1",8
"C0V310","美濃",46,120.5192,22.8987,"高雄市","美濃區福安里中山路二段204巷65號(美濃區福安國小後方)","1992/5/1",8
"C0V350","溪埔",36,120.4468,22.7386,"高雄市","大樹區溪埔里之台29線近83K處","2013/12/1",8
"C0V360","內門",94,120.4668,22.9755,"高雄市","內門區木柵里木柵3號（木柵國民小學）","2013/12/1",8
"C0V370","古亭坑",74,120.4019,22.8932,"高雄市","田寮區古亭里","1992/5/1",8
"C0V400","阿公店",56,120.3555,22.8042,"高雄市","燕巢區西燕里工程路1號（阿公店水庫內）","2013/12/1",8
"C0V440","鳳山",27,120.3561,22.6467,"高雄市","鳳山區文山路園藝巷4號（鳳山熱帶園藝試驗分所）","2013/12/1",8
"C0V450","鳳森",51,120.3926,22.5451,"高雄市","小港區水庫段96-1地號（鳳山給水廠內）","2013/12/1",8
"C0V490","新興",20,120.2988,22.6274,"高雄市","新興區大同一路231號(大同國小內5樓頂)","2009/12/1",8
"C0V500","旗津",6,120.2859,22.5886,"高雄市","旗津區中洲二路207號(旗津國中校園內)","2009/12/1",8
"C0V530","阿蓮",34,120.3275,22.8832,"高雄市","阿蓮區公所樓頂","2013/8/1",8
"C0V610","梓官",22,120.2672,22.7606,"高雄市","梓官區梓官路258號(梓官區公所)","2013/12/1",8
"C0V620","永安",18,120.2369,22.8232,"高雄市","永安區永安路32號(永安消防分隊)","2013/12/1",8
"C0V630","茄萣",19,120.1826,22.9066,"高雄市","茄萣區濱海路四段27號(茄萣區公所)","2013/12/1",8
"C0V640","湖內",35,120.2445,22.8871,"高雄市","湖內區中山路一段290之1號(湖街派出所)","2013/12/1",8
"C0V650","彌陀",28,120.2464,22.7838,"高雄市","彌陀區中正北路7號(彌陀消防分隊)","2013/12/1",8
"C0V660","岡山",25,120.295,22.7971,"高雄市","岡山區岡山路341號(岡山地政事務所)","2013/12/1",8
"C0V670","楠梓",20,120.286,22.7198,"高雄市","楠梓區德民路1010號(國昌國民中學)","2013/12/1",8
"C0V680","仁武",40,120.3477,22.7011,"高雄市","仁武區中正路133號(仁武區公所)","2013/12/1",8
"C0V690","鼓山",30,120.2756,22.6233,"高雄市","鼓山區臨海一路61-1號(鼓山消防分隊)","2013/12/1",8
"C0V700","三民",24,120.3112,22.645,"高雄市","三民區十全一路88號(十全消防分隊)","2013/12/1",8
"C0V710","苓雅",34,120.3307,22.6227,"高雄市","苓雅區三多一路162號(苓雅消防分隊)","2013/12/1",8
"C0V720","林園",15,120.3945,22.5077,"高雄市","林園區林園北路179號(林園區公所)","2013/8/1",8
"C0V730","大寮",33,120.3957,22.6056,"高雄市","大寮區鳳林三路492號(大寮區公所)","2013/8/1",8
"C0V740","旗山",60,120.4836,22.8886,"高雄市","旗山區延平一路499號(旗山區公所)","2013/8/1",8
"C0V750","路竹",50,120.2594,22.855,"高雄市","路竹區國昌路76號(路竹區公所)","2013/12/1",8
"C0V760","橋頭",30,120.3058,22.7578,"高雄市","橋頭區隆豐路1號(橋頭區公所)","2013/12/1",8
"C0V770","大社",26,120.3466,22.7303,"高雄市","大社區自強街1號(大社區公所)","2013/12/1",8
"C0V790","萬山",410,120.6881,22.9059,"高雄市","茂林區萬山段710地號","2013/12/1",8
"C0V800","六龜",256,120.6336,22.9979,"高雄市","六龜區民治路9號(六龜消防隊)","2013/12/1",8
"C0V810","左營",32,120.2849,22.6749,"高雄市","左營區左營大路1號(高雄市立海青高級工商職業學校資訊大樓樓頂)","2015/9/21",8
"C0V820","小林",441,120.6333,23.1484,"高雄市","甲仙區五里路24-2號（小林國小）","2018/12/20",8
"C0W110","東莒",16,119.9807,25.9652,"連江縣","莒光鄉福正村1號(福正抽水機房，莒光遊客中心後方)","2016/7/1",10
"C0W120","西嶼",58,119.4684,23.5626,"澎湖縣","西嶼鄉195號(西嶼燈塔西方)","2016/7/1",22
"C0W130","花嶼",18,119.3228,23.4001,"澎湖縣","望安鄉花嶼村2號(花嶼國民小學)","2016/7/1",22
"C0W140","金沙",21,118.4088,24.4883,"金門縣","金沙鎮環島北路四段465號(金門縣自來水廠榮湖淨水場)","2016/10/5",3
"C0W150","金寧",42,118.329,24.4577,"金門縣","金寧鄉頂林路315號(金門縣消防局)","2016/10/5",3
"C0W160","烏坵",49,119.4496,24.9944,"金門縣","烏坵鄉","2016/10/5",3
"C0W170","東引",42,120.4836,26.3588,"連江縣","東引鄉（東引機場候機室旁）","2017/6/8",10
"C0X050","東河",25,120.3856,23.2966,"臺南市","東山區東河里54號(東河水利工作站)","2015/7/3",21
"C0X060","下營",19,120.2563,23.227,"臺南市","下營區仁里里下營國小附近","2015/7/3",21
"C0X080","佳里",2,120.1451,23.173,"臺南市","佳里區西方之埔尾，近七股區之篤加","1993/3/1",21
"C0X100","臺南市北區",10,120.1942,23.0104,"臺南市","北區文賢路678號(和緯消防分隊)","2013/4/18",21
"C0X110","臺南市南區",20,120.1884,22.9612,"臺南市","南區明興路2號(南區區公所)","2013/4/18",21
"C0X120","麻豆",28,120.2486,23.1833,"臺南市","麻豆區興國路9號(麻豆消防分隊5樓頂)","2013/4/18",21
"C0X130","官田",27,120.3154,23.1932,"臺南市","官田區中山路一段132號(官田區公所)","2013/4/18",21
"C0X140","西港",17,120.2031,23.1256,"臺南市","西港區中山路450號(西港消防分隊4樓頂)","2013/4/18",21
"C0X150","安定",18,120.2278,23.1026,"臺南市","安定區南安村油車33之11號(安定消防分隊3樓頂)","2013/4/18",21
"C0X160","仁德",26,120.2577,22.9683,"臺南市","仁德區仁義路432號(仁德消防分隊)","2013/4/18",21
"C0X170","關廟",50,120.3278,22.963,"臺南市","關廟區中正路998號(關廟區公所3樓頂)","2013/8/1",21
"C0X180","山上",62,120.3633,23.0757,"臺南市","山上區豐德里隙子口5之1號(中油豐德供油中心2樓頂)","2013/4/18",21
"C0X190","安平",10,120.1522,22.9932,"臺南市","安平區城平路2號(台江國家公園管理處)","2013/4/18",21
"C0X200","左鎮",61,120.4085,23.0568,"臺南市","左鎮區中正里171號之4(左鎮區公所)","2013/4/18",21
"C0X210","白河",38,120.4144,23.3475,"臺南市","白河區中山路6號(白河消防分隊)","2015/7/3",21
"C0X220","學甲",26,120.1822,23.2304,"臺南市","學甲區華宗路313號(學甲區公所)","2015/7/3",21
"C0X230","鹽水",29,120.2476,23.2726,"臺南市","鹽水區竹埔里1號(竹埔派出所)","2015/7/3",21
"C0X240","關子嶺",394,120.508,23.3312,"臺南市","白河區關嶺里94-3號(仙草國小關嶺分校)","2015/7/3",21
"C0X250","新營",33,120.3167,23.3107,"臺南市","新營區中正路30號(南瀛親子館)","2015/7/3",21
"C0X260","後壁",39,120.3623,23.3664,"臺南市","後壁區後壁里129號(後壁圖書館)","2015/7/3",21
"C0X270","柳營",33,120.3736,23.2572,"臺南市","柳營區果毅里61號(果毅國小)","2015/7/3",21
"C0X280","將軍",22,120.1358,23.215,"臺南市","將軍區將貴里58號(將軍國小)","2015/7/3",21
"C0X290","北門",10,120.1255,23.2678,"臺南市","北門區北門里舊埕108號(北門區公所)","2016/1/1",21
"C0X300","鹿寮",70,120.4773,23.386,"臺南市","白河區崎內里12號(鹿寮水庫)","2016/1/1",21
"C0X310","七股",9,120.0863,23.1473,"臺南市","七股區鹽埕237-11號(氣象局七股雷達站區內)","2016/2/1",21
"C0Z020","明里",211,121.2623,23.2087,"花蓮縣","富里鄉明里村明里社區後方山上","2010/7/1",2
"C0Z050","佳心",824,121.2132,23.3457,"花蓮縣","卓溪鄉佳心(玉山國家公園內，距花蓮卓溪鄉南安遊客步行2.5時之日據時代派出所舊址)","1997/7/1",2
"C0Z061","玉里",174,121.3397,23.3215,"花蓮縣","玉里鎮樂合里新民41號(樂合國小)","2008/2/20",2
"C0Z070","舞鶴",247,121.3741,23.4681,"花蓮縣","瑞穗鄉舞鶴村加納納山三角點旁","1997/7/1",2
"C0Z080","富源",298,121.3782,23.5876,"花蓮縣","光復鄉大豐村9鄰265號(富源國中對面之半山腰上)","2012/1/1",2
"C0Z100","東華",36,121.5498,23.8953,"花蓮縣","壽豐鄉大學路二段1號（國立東華大學）","2014/1/1",2
"C0Z150","吉安光華",27,121.5952,23.9309,"花蓮縣","吉安鄉南濱路一段531號(水資源回收中心)","2017/6/3",2
"C0Z160","鳳林",124,121.4534,23.7461,"花蓮縣","鳳林鎮信義路200號(鳳林地政事務所)","2017/6/3",2
"C0Z170","卓溪",199,121.3033,23.3443,"花蓮縣","卓溪鄉卓溪村中正路65-5號(卓溪鄉立圖書館)","2017/12/1",2
"C0Z180","新城",34,121.6045,24.0395,"花蓮縣","新城鄉大漢村光復路570號(新城鄉公所)","2017/12/1",2
"C0Z190","富世",62,121.6297,24.1474,"花蓮縣","秀林鄉富世村127號(富世國小校園內)","2017/12/1",2
"C0Z200","萬榮",153,121.4201,23.7092,"花蓮縣","鳳林鎮長橋里長橋路2號(長橋國小)","2017/6/3",2
"C0Z210","瑞穗",126,121.3902,23.5239,"花蓮縣","瑞穗鄉鶴岡村167號(鶴岡國小)","2017/12/1",2
"C0Z220","和平林道",589,121.6563,24.3439,"花蓮縣","秀林鄉臺電公司東部發電廠碧海機組廠區內(進入管制哨約7公里處)","2018/3/23",2
"C0Z230","和平",31,121.7701,24.3072,"花蓮縣","秀林鄉克來寶段399地號(和平工業港安檢所綠洲分隊)","2017/12/1",2
"C0Z250","瑞穗林道",1124,121.3069,23.4928,"花蓮縣","卓溪鄉瑞穗林道約7.5K瑞欣礦區下方空地","2017/12/1",2
"C0Z270","蕃薯寮",343,121.5401,23.7384,"花蓮縣","壽豐鄉水璉村蕃薯寮附近山區道路旁(牛山段607地號內)","2017/6/3",2
"C0Z280","德武",224,121.4107,23.4743,"花蓮縣","玉里鎮德武里附近山區道路旁(德武段680地號內)","2017/12/1",2
"C0Z290","赤柯山",946,121.3829,23.3689,"花蓮縣","玉里鎮赤柯山段338地號","2017/12/1",2
"C0Z300","東里",182,121.3055,23.2685,"花蓮縣","富里鄉東里村大莊路52號(東里消防分隊)","2017/12/1",2
"C0Z310","清水斷崖",59,121.6891,24.2183,"花蓮縣","秀林鄉臺9線大清水遊憩區下方空地","2018/3/23",2
"C0Z320","清水林道",646,121.1883,23.2713,"花蓮縣","卓溪鄉清水林道北側山區(新生段1地號)","2018/5/9",2
"C0Z330","安通山",488,121.3485,23.2907,"花蓮縣","玉里鎮安通產業道路附近山區","2018/5/9",2
"C1A630","下盆",527,121.5386,24.771,"新北市","烏來區東勢溪中游(步行一小時)","1987/6/1",12
"C1A730","公館",22,121.5395,25.0144,"臺北市","大安區羅斯福路四段1號(臺灣大學大氣科學系觀測坪內)","1987/6/1",19
"C1A9N0","四十份",435,121.5933,24.9342,"新北市","新店區北宜路旁(文山事業區第四林班)","2000/6/1",12
"C1AC50","關渡",111,121.4693,25.1335,"臺北市","北投區學園路2號(臺北城市科技大學校園內5樓頂)","1992/5/20",19
"C1C510","水尾",106,121.0872,24.9401,"桃園市","楊梅區豐野里1鄰151號(富崗水尾工作站內)","1987/6/1",7
"C1D380","新埔",65,121.0383,24.8475,"新竹縣","新埔鎮下寮里43號義民廟右方路旁","1987/6/1",14
"C1D400","鳥嘴山",839,121.2839,24.7191,"新竹縣","尖石鄉新樂村復興礦場","1987/6/1",14
"C1D410","白蘭",1290,121.0799,24.5794,"新竹縣","五峰鄉桃山村","1987/6/1",14
"C1D420","太閣南",1279,121.1606,24.6328,"新竹縣","五峰鄉羅山工作站後方山頂羅山瞭望台旁","1987/6/1",14
"C1D630","飛鳳山",462,121.1192,24.7665,"新竹縣","芎林鄉王爺坑段83-7號地","2011/12/1",14
"C1D640","外坪(五指山)",718,121.091,24.6444,"新竹縣","北埔鄉大坪段內大坪小段36-54號地","2011/12/1",14
"C1E451","象鼻",950,120.9402,24.3686,"苗栗縣","泰安鄉象鼻村","2011/11/1",6
"C1E461","松安",1325,120.986,24.398,"苗栗縣","泰安鄉雪霸國家公園二本松解說站旁","2011/11/1",6
"C1E480","鳳美",576,121.0347,24.5548,"苗栗縣","南庄鄉東河村24鄰石門1號(南庄往鹿場途中)","1990/7/21",6
"C1E511","新開",326,120.827,24.3477,"苗栗縣","大湖鄉新開村新開4鄰20號旁","2011/11/1",6
"C1E601","南勢",125,120.7348,24.5725,"苗栗縣","後龍鎮南港里南勢山","2011/11/1",6
"C1E670","南礦",1209,121.0028,24.5383,"苗栗縣","南庄鄉蓬萊林道末端(南庄事業區18林班地)","2002/8/1",6
"C1E681","南勢山",977,120.9238,24.4217,"苗栗縣","泰安鄉大興村(從泰安國小進入站址車程約10分鐘)","2011/11/1",6
"C1E691","南湖",786,120.8375,24.4014,"苗栗縣","大湖鄉(位於南湖台3線135k處之吊樑道山上)","2011/11/1",6
"C1E701","八卦",737,120.9276,24.4918,"苗栗縣","泰安鄉(與八卦派出所相距約1.2k處)","2011/11/1",6
"C1E711","馬拉邦山",990,120.9017,24.3673,"苗栗縣","大湖鄉東興村(馬拉邦山登山口)","2011/11/1",6
"C1E721","泰安",1409,120.968,24.489,"苗栗縣","泰安鄉橫龍古道上(走路約5分鐘)之大湖事業區18林班地","2011/11/1",6
"C1E770","公館",83,120.8308,24.5269,"苗栗縣","公館鄉鶴岡村178號(鶴岡國中)","2011/11/1",6
"C1F871","上谷關",1000,121.0186,24.2035,"臺中市","和平區(博愛國小谷關分校附近)","2011/11/1",18
"C1F891","稍來",2205,121.0056,24.2635,"臺中市","和平區八仙山事業區49林班地船型山苗圃廢棄觀測坪附近","2011/11/1",18
"C1F911","新伯公",417,120.8411,24.2214,"臺中市","東勢區詒福段163地號(台電公司門前右前方)","2011/11/1",18
"C1F941","雪嶺",2620,121.0266,24.2806,"臺中市","和平區雪嶺地區八仙山事業區60林班地小雪山莊後方水塔後山頂","2011/11/1",18
"C1F9B1","桐林",130,120.7352,24.0662,"臺中市","霧峰區桐林里民生路(桐林國小斜對面)","2011/11/1",18
"C1F9C1","白冷",610,120.9299,24.1828,"臺中市","和平區天輪里天輪巷42號(臺中市和平區白冷國民小學校園內)","2011/11/1",18
"C1F9D1","白毛台",639,120.8869,24.1583,"臺中市","新社區福興里福民路13號旁","2011/11/1",18
"C1F9E1","龍安",563,120.832,24.1605,"臺中市","新社區中和里內(距龍安橋約1.2k處)","2011/11/1",18
"C1F9F1","伯公龍",500,120.849,24.2724,"臺中市","東勢區勢林街(宏覺寺旁)","2011/11/1",18
"C1F9G1","慶福山",810,120.8484,24.1809,"臺中市","東勢區(台8線10.5k往馬鞍農場方向.車程約半小時)","2011/11/1",18
"C1F9H1","烏石坑",930,120.9458,24.2791,"臺中市","和平區大安溪事業區第122林班之烏石坑苗圃內","2011/11/1",18
"C1F9J1","清水林",723,120.8204,24.0712,"臺中市","太平區136縣道9.5k處旁約500公尺","2011/11/1",18
"C1F9W0","德基",1970,121.1903,24.2548,"臺中市","和平區台8甲線69-70k處，彎入勝利路接翠巒產業道路約6.2km，路邊白色水塔旁","2011/11/1",18
"C1G691","下水埔",110,120.5676,23.8161,"彰化縣","溪州鄉大莊國小(大庄村中橫巷1號)","2011/10/6",17
"C1H000","翠峰",2454,121.2052,24.1094,"南投縣","仁愛鄉大同村仁和路136號(臺14甲線19-19.5k處的長途通信機房旁)","1992/7/1",4
"C1H860","瑞岩",1840,121.1835,24.1238,"南投縣","仁愛鄉","1992/5/1",4
"C1H900","清流",934,120.963,24.0808,"南投縣","仁愛鄉互助村","1992/5/1",4
"C1H920","長豐",736,120.8799,24.102,"南投縣","國姓鄉長豐村東二巷71號(仙徠山莊內)","1992/5/1",4
"C1H941","雙冬",630,120.8022,23.9674,"南投縣","草屯鎮雙冬里","2011/11/1",4
"C1H971","六分寮",428,120.6378,23.9251,"南投縣","南投市鳳鳴里八卦路831號(南投縣政府消防局第一大隊鳳鳴分隊)","2011/11/1",4
"C1H9B1","阿眉",1710,120.9947,24.1263,"南投縣","仁愛鄉(水利局雨量站旁)","2011/11/1",4
"C1I020","萬大",1120,121.1323,23.9798,"南投縣","仁愛鄉親愛村萬大水庫宿舍旁","1992/7/1",4
"C1I030","武界",948,121.0525,23.9132,"南投縣","仁愛鄉法治村","1992/7/1",4
"C1I050","丹大",2568,121.1411,23.7537,"南投縣","信義鄉丹大事業區第10林班地(瞭望臺旁)","1992/7/1",4
"C1I070","和社",825,120.8889,23.5911,"南投縣","信義鄉中橫同富村同和巷47號和社分社觀測坪內","1992/7/1",4
"C1I101","溪頭",1810,120.8076,23.6618,"南投縣","鹿谷鄉內湖村森林巷溪頭林營區(鳳凰山瞭望台旁)","2011/11/1",4
"C1I121","大鞍",1515,120.76,23.6784,"南投縣","竹山鎮樟空倫山之三角點附近","2011/11/1",4
"C1I131","桶頭",311,120.6541,23.6419,"南投縣","竹山鎮鯉南路338號旁","2011/11/1",4
"C1I140","卡奈托灣",1700,121.0879,23.7544,"南投縣","信義鄉丹大事業區第16林班地","1993/3/1",4
"C1I150","青雲",393,120.9494,23.7934,"南投縣","信義鄉地利村5鄰開信巷98-3號旁","1993/3/1",4
"C1I201","中心崙",677,120.7121,23.7287,"南投縣","竹山鎮之中心崙林道4.1km處","2011/11/1",4
"C1I211","蘆竹湳",529,120.812,23.934,"南投縣","中寮鄉清水村龍林巷4鄰58之6號旁","2011/11/1",4
"C1I220","樟湖",1098,120.847,23.9053,"南投縣","國姓鄉147縣道9km處與站址直線距離約1.6km","2002/8/1",4
"C1I230","九份二山",837,120.845,23.9619,"南投縣","國姓鄉南港村九份二山上(921地震紀念公園內)","2002/8/1",4
"C1I240","外大坪",725,120.9179,23.9587,"南投縣","埔里鎮種瓜路(投68)路口至站址車程約20分鐘","2002/8/1",4
"C1I250","鯉潭",732,120.9911,23.9619,"南投縣","埔里鎮埔里高工旁中心路2km處","2002/8/1",4
"C1I260","北坑",601,121.0069,23.9246,"南投縣","埔里鎮麒麟里4鄰武界路31號旁","2002/8/1",4
"C1I280","埔中",439,120.6426,23.8208,"南投縣","名間鄉埔中村11之3號後面","2002/8/1",4
"C1I290","豐丘",1151,120.8874,23.6682,"南投縣","信義鄉豐丘村豐丘產業道路末端","2002/8/1",4
"C1I310","西巒",1033,120.884,23.7545,"南投縣","信義鄉台21線道之人倫林道9.5k處","2002/8/1",4
"C1I320","奧萬大",1275,121.1786,23.953,"南投縣","仁愛鄉奧萬大森林遊樂區內(員工宿舍)","2002/8/1",4
"C1I330","楓樹林",1266,121.0761,23.9868,"南投縣","仁愛鄉埔里事業區107林班地(臺14線近埔里市區)","2002/8/1",4
"C1I340","新興橋",897,120.8687,23.5633,"南投縣","信義鄉臺21線新興橋附近","2002/8/1",4
"C1I400","凌霄",1399,121.0045,24.0188,"南投縣","仁愛鄉守城段4地號","2016/1/1",4
"C1I430","翠華",2415,121.2243,24.192,"南投縣","仁愛鄉翠華村華岡段70地號內","2016/1/1",4
"C1I440","新高口",2540,120.8789,23.4787,"南投縣","信義鄉新高口(臺18線約107.5k處路旁，對高岳營林區第31林班446號林地內)","1992/5/1",4
"C1I450","望鄉山",3025,120.9443,23.5942,"南投縣","信義鄉巒大事業區第131林班內(郡大林道約32K附近，望鄉山三角點旁)","2016/1/1",4
"C1I470","杉林溪",1680,120.7864,23.6395,"南投縣","竹山鎮大鞍里(杉林溪森林生態渡假園區收費亭附近，向欣谷碑旁)","2016/1/1",4
"C1I500","大尖山",2017,120.9949,23.8586,"南投縣","仁愛鄉大尖山","2016/1/1",4
"C1I510","線浸林道",1208,120.833,23.7615,"南投縣","鹿谷鄉線浸林道11k附近","2016/1/1",4
"C1K540","口湖",15,120.1805,23.5853,"雲林縣","口湖鄉口湖村中正路一段280號(口湖消防分隊)","2016/1/1",11
"C1M390","龍美",1090,120.6544,23.4067,"嘉義縣","番路鄉公興村隆美地區(舊地名為瀨頭)私人茶園內","1988/12/1",16
"C1M400","菜瓜坪",369,120.5761,23.2519,"嘉義縣","大埔鄉西興村","1988/12/1",16
"C1M480","獨立山",798,120.6078,23.537,"嘉義縣","竹崎鄉(阿里山鐵路獨立山站旁獨立山之三角點)","1993/3/1",16
"C1M600","頭凍",986,120.6033,23.4064,"嘉義縣","番路鄉阿里山公路23k處轉入興社產業道路盡頭","2002/8/1",16
"C1M610","石磐龍",1083,120.6635,23.4966,"嘉義縣","竹崎鄉光華村","2002/8/1",16
"C1M620","瑞里",1252,120.6752,23.5451,"嘉義縣","梅山鄉瑞里派出所旁小路至站址(公墓旁)車程約10分鐘","2002/8/1",16
"C1M640","十字",1567,120.7537,23.4922,"嘉義縣","阿里山鄉十字村16號（十字國小樓頂）","2019/1/1",16
"C1N001","沙崙",24,120.3094,22.9355,"臺南市","歸仁區沙崙里184號北沙崙農場","2013/8/1",21
"C1O850","環湖",44,120.4186,23.1486,"臺南市","大內區頭社里10號(大內國小鳴頭分校內)","1988/12/1",21
"C1O870","大棟山",1249,120.5223,23.3116,"臺南市","白河區大棟山三角點","1988/12/1",21
"C1O880","關山",223,120.5941,23.1734,"臺南市","南化區關山里西阿里山關83號(瑞峰國小附近)","1988/12/1",21
"C1O921","楠西",115,120.4841,23.1835,"臺南市","楠西區中興路107號(楠西國民中學內)","2013/4/18",21
"C1R110","口社",110,120.6452,22.7701,"屏東縣","三地門鄉口社村5鄰信義巷58-5號","1992/5/1",5
"C1R120","上德文",820,120.7044,22.7633,"屏東縣","三地門鄉德文村口之公墓旁","1992/5/1",5
"C1R250","力里",92,120.6292,22.4281,"屏東縣","春日鄉七佳村自強一路92號(力里國民小學內)","1997/7/1",5
"C1R290","石門山",260,120.7566,22.1126,"屏東縣","牡丹鄉石門古戰場(恆春事業區29林班地)","1997/12/20",5
"C1R300","旭海",13,120.8877,22.1946,"屏東縣","牡丹鄉旭海村6號(旭海分駐所對面平地上)","1997/7/1",5
"C1R320","車城",7,120.7162,22.0744,"屏東縣","車城鄉福興村中山路66號(車城國民小學操場旁)","1997/7/1",5
"C1R330","枋山",9,120.6611,22.2469,"屏東縣","枋山鄉中山路三段52號加祿國小成功分班內（廢校中）","1997/7/1",5
"C1R340","牡丹",230,120.7926,22.13,"屏東縣","牡丹鄉恆春事業區第二五林班(199縣道23k-23.5k間之側坡地上)","1997/7/1",5
"C1R440","大漢山",1654,120.7532,22.4053,"屏東縣","春日鄉大漢山頂","2012/1/1",5
"C1R610","西大武山",1828,120.7322,22.6177,"屏東縣","泰武鄉北大武山步道2.6k","2013/12/1",5
"C1R630","龍泉",60,120.5909,22.667,"屏東縣","內埔鄉大新路109號（屏東縣新生國民小學）","2018/8/11",5
"C1S670","摩天",1580,121.027,23.1995,"臺東縣","海端鄉(省道臺20線169K福德宮後方)","1997/7/1",20
"C1S800","華源",80,121.0233,22.6579,"臺東縣","太麻里鄉華源村","2004/6/1",20
"C1S820","金峰",177,120.9332,22.591,"臺東縣","金峰鄉嘉蘭村嘉蘭國小旁","2004/6/1",20
"C1S850","豐南",489,121.2624,23.1221,"花蓮縣","富里鄉豐南村花82縣道盡頭叉路1k旁","2012/1/1",2
"C1S860","利嘉",516,121.0505,22.8094,"臺東縣","卑南鄉利嘉林道6k附近梅子園","2012/1/1",20
"C1S870","南美山",222,121.3823,23.1503,"臺東縣","成功鎮南美山產業道路盡頭柑橘園","2012/1/1",20
"C1S880","壽卡",474,120.8589,22.2389,"臺東縣","達仁鄉(大武事業區第48林班內)電信轉播站後方","1997/7/1",20
"C1SA70","都蘭",62,121.2269,22.8779,"臺東縣","東河鄉都蘭村431號(都蘭國民小學教室頂樓)","2019/6/7",20
"C1T800","洛韶",1260,121.454,24.2046,"花蓮縣","秀林鄉富世村中橫公路洛韶11號旁","1996/1/1",2
"C1T810","慈恩",2049,121.3884,24.192,"花蓮縣","秀林鄉富世村關原路3號(救國團慈恩山莊)","1996/1/1",2
"C1T830","布洛灣",675,121.5713,24.1718,"花蓮縣","秀林鄉布洛灣地區(布洛灣遊客中心圓環之廣場旁邊)","1996/1/1",2
"C1T920","中興",68,121.4987,23.7695,"花蓮縣","壽豐鄉中興大橋橋頭旁","1996/1/1",2
"C1T940","大觀",539,121.3731,23.7142,"花蓮縣","萬榮鄉(往臺16線過管制哨約12k處)","1996/1/1",2
"C1T950","太安",1050,121.3701,23.6667,"花蓮縣","萬榮鄉太田事業區128林班地(馬太鞍苗圃)","1996/1/1",2
"C1T970","大農",183,121.4133,23.6152,"花蓮縣","光復鄉花蓮糖廠之大農農場內(大農段691號)","1996/1/1",2
"C1T980","龍澗",1306,121.4113,24.0233,"花蓮縣","秀林鄉龍澗發電廠旁","1996/1/1",2
"C1T990","高寮",128,121.3568,23.3942,"花蓮縣","玉里鎮觀音里15鄰9號(觀音國民小學校園內)","1997/7/1",2
"C1TA00","太魯閣",94,121.6236,24.1577,"花蓮縣","秀林鄉富世291號（太魯閣國家公園管理處內）","2018/8/6",2
"C1U501","牛鬥",280,121.5737,24.6378,"宜蘭縣","大同鄉牛鬥地區","1996/1/1",1
"C1U670","寒溪",105,121.7169,24.634,"宜蘭縣","冬山鄉大進村大進七路51號(大進國民小學校園內)","1996/1/1",1
"C1U690","新寮",101,121.7513,24.6256,"宜蘭縣","冬山鄉中山瀑布附近","1996/1/1",1
"C1U830","烏石鼻",618,121.8394,24.4827,"宜蘭縣","蘇澳鎮之烏石鼻(南澳事業區第10鄰班地上)","2011/1/1",1
"C1U840","東澳嶺",750,121.8485,24.5378,"宜蘭縣","南澳鄉","2011/7/1",1
"C1U850","觀音海岸",665,121.7786,24.3832,"宜蘭縣","南澳鄉之林務局羅東林區管理處和平事業區91林班","2011/7/1",1
"C1U880","北關",8,121.8719,24.9065,"宜蘭縣","頭城鎮濱海路三段(北關梗枋漁港北側路邊)","2017/12/1",1
"C1U920","思源",2085,121.3472,24.3931,"宜蘭縣","大同鄉與臺中市和平區交界之羅葉尾山步道邊(大甲溪事業區40林班內)","2018/3/23",1
"C1V160","達卡努瓦",1040,120.7053,23.2798,"高雄市","那瑪夏區達卡努瓦里","1992/5/1",8
"C1V170","排雲",3690,120.9541,23.4636,"高雄市","桃源區排雲山莊往南峰方向步行約6小時(登山口-8.5k排雲山莊-1.5k測站)","1992/5/1",8
"C1V190","南天池",2700,120.9118,23.274,"高雄市","桃源區長春祠旁之步道步行約50分鐘","1992/5/1",8
"C1V200","梅山",870,120.8236,23.2684,"高雄市","桃源區梅山里(梅山口遊客中心旁道路步行約10分鐘)","1992/5/1",8
"C1V220","小關山",1781,120.8136,23.1542,"高雄市","桃源區老濃溪事業區99林班地","1992/5/1",8
"C1V231","高中",731,120.7167,23.1349,"高雄市","桃源區高中里","2013/4/18",8
"C1V300","御油山",1637,120.7154,23.002,"高雄市","桃源區農業委員會林業試驗所六龜分所鳳崗山苗圃觀測坪內","1992/5/1",8
"C1V340","大津",190,120.646,22.8883,"高雄市","六龜區大津里34號(龍興國小大津分校)","1992/5/1",8
"C1V390","尖山",60,120.3678,22.8132,"高雄市","燕巢區尖山里尖山巷11之1號(燕巢國小尖山分校)","1992/5/1",8
"C1V570","吉東",82,120.5454,22.8542,"高雄市","美濃區吉東里吉頂路19號(吉東國小)","2013/8/1",8
"C1V580","溪南(特生中心)",1656,120.7885,23.085,"高雄市","桃源區石山林道7k(特有生物研究保育中心中海拔試驗站)","2013/4/18",8
"C1V590","新發",741,120.6461,23.057,"高雄市","六龜區旗山事業區61林班地","2013/12/1",8
"C1V600","藤枝",1561,120.757,23.072,"高雄市","桃源區藤枝森林遊樂區遊客中心","2013/4/18",8
"C1V780","多納林道",1050,120.7379,22.888,"高雄市","茂林區多納林道9k(林試所六龜研究中心多納苗圃)","2013/12/1",8
"C1X040","東原",232,120.4638,23.2916,"臺南市","東山區高原里4鄰31號後方果園","1993/3/1",21
"C1Z030","紅葉",218,121.3388,23.4931,"花蓮縣","萬榮鄉紅葉村教堂附近","1997/7/1",2
"C1Z040","立山",434,121.3274,23.4434,"花蓮縣","卓溪鄉立山村後山上","1997/7/1",2
"C1Z110","三棧",680,121.605,24.1156,"花蓮縣","秀林鄉雙露山","2017/12/1",2
"C1Z120","壽豐",62,121.5081,23.8709,"花蓮縣","壽豐鄉壽豐村壽山路37號(壽豐鄉文康中心)","2017/6/3",2
"C1Z130","銅門",187,121.4928,23.9657,"花蓮縣","秀林鄉銅門村69號(銅門國小)","2017/6/3",2
"C1Z140","荖溪",950,121.4596,23.8906,"花蓮縣","秀林鄉","2018/3/23",2
"C1Z240","中平林道",1163,121.2676,23.4212,"花蓮縣","卓溪鄉中平林道(玉里林道)約15K鐵牌處步行上山高地","2017/12/1",2
